[{"OBJECT_NAME":"HAWK-11C","OBJECT_ID":"2024-247E","EPOCH":"2026-03-09T12:17:35.407968","MEAN_MOTION":15.2884802,"ECCENTRICITY":0.00059001,"INCLINATION":45.0045,"RA_OF_ASC_NODE":114.8762,"ARG_OF_PERICENTER":329.704,"MEAN_ANOMALY":30.3502,"EPHEMERIS_TYPE":0,"CLASSIFICATION_TYPE":"U","NORAD_CAT_ID":62381,"ELEMENT_SET_NO":999,"REV_AT_EPOCH":6774,"BSTAR":0.00033290115,"MEAN_MOTION_DOT":9.223e-5,"MEAN_MOTION_DDOT":0},{"OBJECT_NAME":"STARLINK-35878","OBJECT_ID":"2025-303R","EPOCH":"2026-03-09T00:33:41.453280","MEAN_MOTION":15.27598188,"ECCENTRICITY":0.00029159,"INCLINATION":43.002,"RA_OF_ASC_NODE":314.44,"ARG_OF_PERICENTER":246.4167,"MEAN_ANOMALY":113.6378,"EPHEMERIS_TYPE":0,"CLASSIFICATION_TYPE":"U","NORAD_CAT_ID":67178,"ELEMENT_SET_NO":999,"REV_AT_EPOCH":1263,"BSTAR":0.0012258242,"MEAN_MOTION_DOT":0.00033645,"MEAN_MOTION_DDOT":0}]
